OBJECT_NAME,OBJECT_ID,EPOCH,MEAN_MOTION,ECCENTRICITY,INCLINATION,RA_OF_ASC_NODE,ARG_OF_PERICENTER,MEAN_ANOMALY,EPHEMERIS_TYPE,CLASSIFICATION_TYPE,NORAD_CAT_ID,ELEMENT_SET_NO,REV_AT_EPOCH,BSTAR,MEAN_MOTION_DOT,MEAN_MOTION_DDOT
ASTRA 1M,2008-057A,2026-07-13T08:25:26.158080,1.00268561,.0004378,0.3613,82.7472,40.6099,313.6223,0,U,33436,999,4599,0,.117E-5,0
EUTELSAT HOTBIRD 13C,2008-065A,2026-07-13T11:30:50.578848,1.00271283,.0003321,3.0155,78.8797,35.7654,299.1140,0,U,33459,999,4760,0,-.289E-5,0
EXPRESS-AM44,2009-007A,2026-07-13T08:16:41.996064,1.00271045,.0003671,3.5271,78.0732,28.3613,297.9405,0,U,33595,999,5254,0,-.96E-6,0
NSS-9,2009-008A,2026-07-13T12:48:34.842240,1.00271316,.0001835,1.3274,82.3970,20.0798,204.1338,0,U,33749,999,6378,0,.66E-6,0
TELSTAR 11N,2009-009A,2026-07-13T09:51:48.951072,1.00269443,.0002269,0.0405,263.8026,204.7411,293.1331,0,U,34111,999,4650,0,-.254E-5,0
WGS F2 (USA 204),2009-017A,2026-07-13T05:11:00.053376,1.00271869,.0000415,0.0178,29.0199,192.8697,204.4481,0,U,34713,999,4587,0,.66E-6,0
SES-7 (PROTOSTAR 2),2009-027A,2026-07-13T12:16:00.902784,1.00268999,.0000533,0.0280,62.6835,172.5699,348.3701,0,U,34941,999,6289,0,-.348E-5,0
MEASAT-3A,2009-032A,2026-07-13T12:13:38.709984,1.00269878,.0002574,0.0371,315.1108,146.3561,173.3120,0,U,35362,999,829,0,-.115E-5,0
GOES 14,2009-033A,2026-07-13T12:21:07.913088,1.00098892,.0001876,1.7552,82.7149,40.5696,119.5072,0,U,35491,999,685,0,-.362E-5,0
FM-5,2009-034A,2026-07-13T11:20:36.559968,1.00269842,.0000863,0.0458,261.1815,84.8646,29.2941,0,U,35493,999,4690,0,-.203E-5,0
TERRESTAR-1,2009-035A,2026-07-13T12:29:38.799744,1.00270674,.0002618,5.1989,48.7738,55.2028,263.8324,0,U,35496,999,6239,0,-.64E-6,0
ASIASAT 5,2009-042A,2026-07-13T12:13:53.607072,1.00273452,.0001597,0.0050,323.7624,124.8898,126.7122,0,U,35696,999,6197,0,-.311E-5,0
JCSAT-12 (JCSAT-RA),2009-044A,2026-07-13T12:22:52.743936,1.00269866,.0000691,0.0346,288.7024,287.2028,33.2521,0,U,35755,999,6187,0,-.332E-5,0
OPTUS D3,2009-044B,2026-07-12T22:48:29.541024,1.00268614,.00029239,0.8917,268.2973,204.5770,316.2131,0,U,35756,999,6182,0,-.147E-5,0
NIMIQ 5,2009-050A,2026-07-13T11:24:28.689120,1.00271244,.0002513,0.0503,251.9451,215.7317,282.0913,0,U,35873,999,6160,0,-.26E-5,0
AMAZONAS 2,2009-054A,2026-07-13T11:24:36.178272,1.00270396,.0003122,1.8812,82.7107,31.6857,276.1108,0,U,35942,999,6144,0,-.264E-5,0
COMSATBW-1,2009-054B,2026-07-13T12:03:09.979776,1.00269357,.0002608,0.0626,181.2462,292.1859,61.7632,0,U,35943,999,6157,0,.21E-6,0
NSS-12,2009-058A,2026-07-13T12:01:25.148064,1.00273327,.0004655,0.0979,269.4506,167.2154,92.0478,0,U,36032,999,6118,0,.68E-6,0
THOR 6,2009-058B,2026-07-13T08:19:41.708064,1.00270519,.0001535,0.0032,291.9851,175.3853,307.9300,0,U,36033,999,6126,0,-.13E-6,0
INTELSAT 14 (IS-14),2009-064A,2026-07-13T02:59:04.748064,1.00270601,.00022215,0.0155,42.2389,77.1990,171.3473,0,U,36097,999,6086,0,-.276E-5,0
EUTELSAT 36B,2009-065A,2026-07-13T11:59:40.316352,1.00273060,.0005706,0.5552,81.3127,32.5033,47.9678,0,U,36101,999,6097,0,.108E-5,0
INTELSAT 15 (IS-15),2009-067A,2026-07-13T08:43:46.899264,1.00270883,.000209,0.0187,64.5648,56.9721,25.8011,0,U,36106,999,4149,0,-.188E-5,0
WGS F3 (USA 211),2009-068A,2026-07-12T18:01:31.222848,1.00268694,.00005521,0.3000,85.6429,112.9106,232.4791,0,U,36108,999,4684,0,.64E-6,0
DIRECTV 12,2009-075A,2026-07-12T21:34:40.437696,1.00271042,.00003761,0.0059,118.1538,110.5275,283.0374,0,U,36131,999,4681,0,-.104E-5,0
BEIDOU-2 G1,2010-001A,2026-07-13T12:25:15.017952,1.00272604,.0001882,4.3521,60.3096,288.7514,269.0997,0,U,36287,999,6043,0,-.287E-5,0
SDO,2010-005A,2026-07-13T04:48:29.839968,1.00277100,.0001955,34.7041,85.9474,51.9513,123.0341,0,U,36395,999,6032,0,-.107E-5,0
INTELSAT 16 (IS-16),2010-006A,2026-07-13T11:23:28.785408,1.00270436,.0002282,0.0117,19.8432,117.3052,248.8664,0,U,36397,999,5991,0,-.248E-5,0
EWS-G2 (GOES 15),2010-008A,2026-07-12T21:23:38.885856,1.00268270,.00051868,1.3455,82.4942,53.7092,178.8248,0,U,36411,999,5989,0,.2E-6,0
ECHOSTAR 14,2010-010A,2026-07-13T12:14:32.043840,1.00270872,.0001874,0.0454,254.7949,198.7889,262.5164,0,U,36499,999,4681,0,-.3E-7,0
SES-1,2010-016A,2026-07-13T12:35:35.896992,1.00271629,.0002355,0.0400,288.3512,182.9785,267.9608,0,U,36516,999,5929,0,-.118E-5,0
ASTRA 3B,2010-021A,2026-07-13T08:26:26.061792,1.00269327,.0004443,1.5350,83.2412,19.2704,338.8343,0,U,36581,999,5912,0,.132E-5,0
COMSATBW-2,2010-021B,2026-07-13T06:40:56.207712,1.00273105,.0002357,0.0498,121.0554,11.3660,272.1896,0,U,36582,999,5921,0,.86E-6,0
